BEIDOU 3 (C01)          
1 36287U 10001A   21152.50915557 -.00000290  00000-0  00000+0 0  9997
2 36287   1.8514  45.9142 0005414  73.2950  94.7292  1.00272870 41692
BEIDOU 5 (C06)          
1 36828U 10036A   21151.83753487 -.00000072  00000-0  00000-0 0  9992
2 36828  54.1746 179.7470 0113375 235.3581 254.8650  1.00266052 39743
BEIDOU 6 (C04)          
1 37210U 10057A   21151.86698985 -.00000123  00000-0  00000-0 0  9992
2 37210   0.8205  45.6507 0002992 119.4994 196.5032  1.00270948 38813
BEIDOU 7 (C07)          
1 37256U 10068A   21151.83723304 -.00000232  00000-0  00000-0 0  9996
2 37256  50.8915 294.1970 0084517 215.2246 160.0309  1.00259528 38329
BEIDOU 8 (C08)          
1 37384U 11013A   21152.20111295 -.00000223  00000-0  00000+0 0  9990
2 37384  59.7562  58.0695 0052176 206.3092 175.6747  1.00258260 37200
BEIDOU 9 (C09)          
1 37763U 11038A   21152.44249351 -.00000040  00000-0  00000+0 0  9996
2 37763  54.4610 182.1838 0083303 226.4962  96.4063  1.00268453 36171
BEIDOU 10 (C10)         
1 37948U 11073A   21152.55174787 -.00000161  00000-0  00000+0 0  9996
2 37948  50.9933 293.8035 0071991 213.6645  34.8568  1.00257077 34938
BEIDOU 11 (C05)         
1 38091U 12008A   21152.53891190  .00000048  00000-0  00000+0 0  9990
2 38091   1.5212  67.6198 0008539 333.4175 101.9417  1.00267655 34015
BEIDOU 12 (C11)         
1 38250U 12018A   21152.23781503 -.00000107  00000-0  00000+0 0  9998
2 38250  56.7546   6.1466 0020289 249.7564 332.4645  1.86234430 61986
BEIDOU 13 (C12)         
1 38251U 12018B   21151.56698672 -.00000107  00000-0  00000+0 0  9998
2 38251  56.6757   5.5181 0011252 254.9958 281.8745  1.86234299 61972
BEIDOU 15 (C14)         
1 38775U 12050B   21152.26377397  .00000044  00000-0  00000+0 0  9990
2 38775  55.2022 124.5287 0016216 317.4678 163.9663  1.86232382 59361
BEIDOU 16 (C02)         
1 38953U 12059A   21152.56237843 -.00000184  00000-0  00000+0 0  9997
2 38953   1.9326  84.7307 0008547 293.3189 158.6643  1.00269151 31584
BEIDOU 17 (C31)         
1 40549U 15019A   21152.42830889 -.00000186  00000-0  00000+0 0  9996
2 40549  52.5224 317.1713 0037907 186.6739 356.8747  1.00269118 22612
BEIDOU 18 (C57)         
1 40748U 15037A   21151.70063221 -.00000108  00000-0  00000-0 0  9990
2 40748  55.9373   4.6111 0005264  26.1121 150.2541  1.86233410 39806
BEIDOU 19 (C58)         
1 40749U 15037B   21151.49998441 -.00000107  00000-0  00000-0 0  9997
2 40749  55.9429   4.6060 0004869 346.1445 191.8867  1.86232314 39798
BEIDOU 20 (C18)         
1 40938U 15053A   21152.04036088 -.00000158  00000-0  00000+0 0  9992
2 40938  52.0892 280.2468 0046518 191.2016 248.2012  1.00286899 20875
BEIDOU IGSO-6 (C13)     
1 41434U 16021A   21152.01445391 -.00000189  00000-0  00000+0 0  9992
2 41434  57.5397  56.8157 0038248 215.1906  79.7470  1.00272744 19006
BEIDOU-2 G7 (C03)       
1 41586U 16037A   21152.16175882 -.00000364  00000-0  00000+0 0  9993
2 41586   1.6681  66.7063 0009577  16.2895 335.5702  1.00277282 18312
BEIDOU-3 M1 (C19)       
1 43001U 17069A   21152.04725606  .00000043  00000-0  00000+0 0  9998
2 43001  55.3551 124.4857 0012418 290.8981 201.4556  1.86231814 24292
BEIDOU-3 M2 (C20)       
1 43002U 17069B   21151.62016216  .00000040  00000-0  00000-0 0  9990
2 43002  55.3549 124.5342 0010915 307.9089 301.6044  1.86231422 24277
BEIDOU-3 M3 (C27)       
1 43107U 18003A   21152.06912844 -.00000110  00000-0  00000+0 0  9994
2 43107  55.3818   5.6878 0005776  47.8111 308.5825  1.86232560 23041
BEIDOU-3 M4 (C28)       
1 43108U 18003B   21151.73743954 -.00000109  00000-0  00000-0 0  9991
2 43108  55.3736   5.6881 0001894 253.4413 285.7470  1.86232519 23048
BEIDOU-3 M5 (C21)       
1 43207U 18018A   21150.84342086  .00000034  00000-0  00000-0 0  9995
2 43207  55.3149 124.6528 0008174 323.5446  36.3636  1.86231712 22417
BEIDOU-3 M6 (C22)       
1 43208U 18018B   21150.91008799  .00000035  00000-0  00000-0 0  9995
2 43208  55.3157 124.6550 0010528 300.1041  59.7557  1.86231736 22417
BEIDOU-3 M7 (C29)       
1 43245U 18029A   21151.66704637 -.00000108  00000-0  00000-0 0  9997
2 43245  55.3135   3.4929 0001432  40.8455 316.1552  1.86232658 21574
BEIDOU-3 M8 (C30)       
1 43246U 18029B   21152.13577669 -.00000108  00000-0  10000-3 0  9998
2 43246  55.3121   3.5062 0004703   5.2264 352.1924  1.86232505 21570
BEIDOU IGSO-7 (C16)     
1 43539U 18057A   21152.45029328 -.00000087  00000-0  00000+0 0  9994
2 43539  55.0551 179.0979 0038681 222.7952 124.0765  1.00274006 10684
BEIDOU-3 M9 (C23)       
1 43581U 18062A   21151.37179738 -.00000031  00000-0  00000-0 0  9998
2 43581  54.4082 245.1831 0003623 263.1291 152.1350  1.86231901 19310
BEIDOU-3 M10 (C24)      
1 43582U 18062B   21151.73529164 -.00000036  00000-0  00000-0 0  9996
2 43582  54.4081 245.1600 0004153 357.9652  32.3373  1.86232091 19322
BEIDOU-3 M11 (C25)      
1 43602U 18067A   21151.72995368 -.00000035  00000-0  00000-0 0  9995
2 43602  54.4831 243.7446 0006496 359.5708  69.3993  1.86231772 18818
BEIDOU-3 M12 (C26)      
1 43603U 18067B   21152.14851230 -.00000040  00000-0  00000+0 0  9997
2 43603  54.4793 243.6951 0003773 346.4004 273.6603  1.86231673 18835
BEIDOU-3 M13 (C32)      
1 43622U 18072A   21151.43380446  .00000038  00000-0  00000-0 0  9998
2 43622  55.2797 124.2013 0008888 288.6208 242.3856  1.86231801 18338
BEIDOU-3 M14 (C33)      
1 43623U 18072B   21151.95102975  .00000042  00000-0  00000-0 0  9990
2 43623  55.2792 124.1758 0007077 306.9154 301.1037  1.86231833 18343
BEIDOU-3 M15 (C34)      
1 43647U 18078A   21152.26962670 -.00000108  00000-0  10000-3 0  9991
2 43647  55.2083   3.6625 0007082   5.6591 351.1876  1.86232461 17859
BEIDOU-3 M16 (C35)      
1 43648U 18078B   21151.99163630 -.00000108  00000-0  10000-3 0  9990
2 43648  55.2036   3.6789 0005386  17.7137  61.2535  1.86232367 17872
BEIDOU-3 G1 (C59)       
1 43683U 18085A   21151.86306424 -.00000289  00000-0  00000-0 0  9999
2 43683   1.0790 229.1902 0002703 351.9120 119.1675  1.00268414  9589
BEIDOU-3 M17 (C36)      
1 43706U 18093A   21152.02767114 -.00000039  00000-0  00000+0 0  9992
2 43706  54.4874 245.0184 0009943 266.3875  93.5400  1.86231864 17222
BEIDOU-3 M18 (C37)      
1 43707U 18093B   21151.74194490 -.00000036  00000-0  00000-0 0  9990
2 43707  54.4890 245.0177 0007761 292.7239 326.4805  1.86232127 17215
BEIDOU-3 IGSO-1 (C38)   
1 44204U 19023A   21150.66901826 -.00000236  00000-0  00000-0 0  9998
2 44204  55.9966  57.1104 0018508 193.3935 349.1079  1.00300370  7878
BEIDOU-2 G8             
1 44231U 19027A   21151.91160552 -.00000258  00000-0  00000+0 0  9997
2 44231   0.2853 340.4741 0005849 205.3835 176.4475  1.00271204  7603
BEIDOU-3 IGSO-2 (C39)   
1 44337U 19035A   21152.15472145 -.00000075  00000-0  00000+0 0  9991
2 44337  55.0895 175.1417 0020253 192.6659  44.4981  1.00286251  7227
BEIDOU-3 M23 (C45)      
1 44542U 19061A   21151.81083230 -.00000036  00000-0  10000-3 0  9995
2 44542  54.7129 245.0936 0007633 325.0497 293.4262  1.86231029 11470
BEIDOU-3 M24 (C46)      
1 44543U 19061B   21151.56380910 -.00000033  00000-0  10000-3 0  9990
2 44543  54.7133 245.0722 0004721 315.5879  48.1095  1.86231682 11487
BEIDOU-3 IGSO-3         
1 44709U 19073A   21151.84007634 -.00000184  00000-0  00000-0 0  9990
2 44709  57.8715 300.3264 0019233 197.6579 160.8467  1.00280613  5973
BEIDOU-3 M21            
1 44793U 19078A   21151.80101378 -.00000109  00000-0  10000-3 0  9995
2 44793  55.0572   3.7463 0006944  12.2440 344.8810  1.86232027 10338
BEIDOU-3 M22            
1 44794U 19078B   21151.39940137 -.00000109  00000-0  00000-0 0  9990
2 44794  55.0246   3.7598 0004960  11.0044 347.8204  1.86232872 10326
BEIDOU-3 M19            
1 44864U 19090A   21151.90357708  .00000042  00000-0  00000-0 0  9990
2 44864  55.2149 124.4179 0018124 269.7966 261.6556  1.86231930  9927
BEIDOU-3 M20            
1 44865U 19090B   21151.72105554  .00000040  00000-0  00000-0 0  9999
2 44865  55.2172 124.4544 0016960 283.0353 215.9659  1.86231924  9902
BEIDOU-3 G2             
1 45344U 20017A   21152.57156609 -.00000152  00000-0  00000+0 0  9998
2 45344   2.4529 336.1467 0004001 109.8927  90.0370  1.00270001  4807
BEIDOU-3 G3             
1 45807U 20040A   21152.58703115 -.00000363  00000-0  00000+0 0  9993
2 45807   2.3193 298.5898 0004564   9.7123 263.7824  1.00266449  3618
